STARLINK-3048           
1 49148U 21082U   22008.16667824  .00029065  00000+0  24460-3 0  9991
2 49148  69.9975 160.6727 0003262 281.3996 104.2809 15.69730639 19444
STARLINK-3053           
1 49149U 21082V   22007.91667824  .00024674  00000+0  20692-2 0  9997
2 49149  69.9973 171.3954 0003460 284.9600 141.5503 14.98314545  3583
STARLINK-3104           
1 49150U 21082W   22007.91667824  .00004441  00000+0  37979-3 0  9996
2 49150  69.9999 171.3907 0003111 279.9887 172.3447 14.98327948  3585
STARLINK-3102           
1 49151U 21082X   22008.16667824  .00024337  00000+0  20485-3 0  9995
2 49151  69.9987 160.6637 0003743 279.1350 108.6439 15.69771860 19521
STARLINK-3081           
1 49152U 21082Y   22007.91667824  .00029590  00000+0  24891-3 0  9999
2 49152  69.9994 161.3622 0003712 284.4656 139.4950 15.69734763 19404
STARLINK-3072           
1 49153U 21082Z   22007.91667824 -.00001114  00000+0 -75581-5 0  9998
2 49153  69.9997 161.3723 0003574 273.1561 146.3695 15.69748198  3689
STARLINK-3068           
1 49154U 21082AA  22007.91667824  .00029384  00000+0  24715-3 0  9997
2 49154  69.9977 161.3629 0003848 283.9673 142.0704 15.69738379 19355
STARLINK-3060           
1 49155U 21082AB  22008.25001157  .00086286  00000+0  71855-3 0  9998
2 49155  69.9984 160.4216 0003891 282.4143 222.5140 15.69700305 19402
STARLINK-3085           
1 49156U 21082AC  22008.25001157  .00082799  00000+0  69057-3 0  9995
2 49156  69.9984 160.4107 0003310 280.3815 235.1713 15.69678390 19405
STARLINK-3051           
1 49157U 21082AD  22008.25001157  .00084309  00000+0  70169-3 0  9991
2 49157  69.9995 160.4205 0003901 275.1685 236.1940 15.69721220 19426
STARLINK-3083           
1 49158U 21082AE  22008.25001157  .00084879  00000+0  70716-3 0  9992
2 49158  69.9974 160.4100 0003792 276.2824 243.5154 15.69694641 19428
STARLINK-3056           
1 49159U 21082AF  22008.25001157  .00045472  00000+0  37974-2 0  9997
2 49159  69.9977 170.5564 0003278 286.5026 189.0885 14.98295281 19170
STARLINK-3095           
1 49160U 21082AG  22008.25001157  .00019361  00000+0  16256-2 0  9997
2 49160  69.9986 170.5553 0003334 280.2485 246.7076 14.98336519 19165
STARLINK-3080           
1 49161U 21082AH  22008.25001157  .00044625  00000+0  37267-2 0  9994
2 49161  69.9983 170.5567 0003822 278.7212 222.4874 14.98300261 19162
STARLINK-3082           
1 49162U 21082AJ  22008.25001157  .00044813  00000+0  37435-2 0  9991
2 49162  69.9990 170.5557 0003310 282.0930 270.6358 14.98288341 19253
STARLINK-3088           
1 49163U 21082AK  22008.25001157  .00082640  00000+0  68828-3 0  9993
2 49163  69.9991 160.4030 0003560 274.6410 249.4950 15.69711906 19491
STARLINK-3106           
1 49164U 21082AL  22008.25001157  .00013041  00000+0  11082-3 0  9993
2 49164  69.9990 160.3913 0003489 276.7140 258.0707 15.69755919 19491
STARLINK-3052           
1 49165U 21082AM  22007.91667824  .00010274  00000+0  86750-3 0  9994
2 49165  69.9994 171.3933 0003564 275.7850 305.1110 14.98333922  3583
STARLINK-3089           
1 49166U 21082AN  22008.25001157  .00080739  00000+0  67250-3 0  9991
2 49166  69.9983 160.3904 0003949 274.3077 258.3089 15.69714997 19520
STARLINK-3054           
1 49167U 21082AP  22008.25001157  .00046367  00000+0  38689-2 0  9994
2 49167  69.9987 170.5415 0003022 266.3740 337.6333 14.98322219 19295
STARLINK-3101           
1 49168U 21082AQ  22008.25001157  .00081556  00000+0  67905-3 0  9998
2 49168  70.0002 160.3802 0003676 275.8960 265.2439 15.69722366 19534
STARLINK-3046           
1 49169U 21082AR  22008.25001157  .00015075  00000+0  12770-3 0  9992
2 49169  69.9987 160.3857 0003598 272.0918 264.7829 15.69772685 19535
STARLINK-3074           
1 49170U 21082AS  22007.91667824  .00023200  00000+0  19461-2 0  9997
2 49170  69.9999 171.3819 0003226 275.2831 110.9166 14.98321579  3584
STARLINK-3107           
1 49171U 21082AT  22008.25001157  .00047402  00000+0  39572-2 0  9992
2 49171  70.0004 170.5428 0003275 268.4058  12.3978 14.98294879 19238
STARLINK-3091           
1 49172U 21082AU  22008.25001157 -.00016422  00000+0 -13590-3 0  9996
2 49172  69.9986 160.3712 0003967 275.0523 274.5876 15.69773024 18328
STARLINK-3045           
1 49173U 21082AV  22008.25001157  .00089867  00000+0  74817-3 0  9997
2 49173  70.0009 160.0631 0003356 268.0428 187.9815 15.69696495 18330
STARLINK-3047           
1 49174U 21082AW  22008.25001157  .00080364  00000+0  66916-3 0  9992
2 49174  69.9995 160.3803 0003494 278.9032 266.4575 15.69726352 19490
STARLINK-3087           
1 49175U 21082AX  22008.25001157  .00077446  00000+0  64613-3 0  9992
2 49175  69.9992 160.3706 0003676 275.6639 276.1272 15.69688761 18323
STARLINK-3069           
1 49176U 21082AY  22008.08335648 -.00034024  00000+0 -28439-3 0  9992
2 49176  70.0004 160.8272 0003332 279.2232  59.5044 15.69749323 18302
STARLINK-3103           
1 49177U 21082AZ  22008.08335648 -.00055069  00000+0 -46149-3 0  9993
2 49177  69.9997 160.8353 0003553 281.2706  51.0829 15.69803651 19501
STARLINK-3086           
1 49178U 21082BA  22008.25001157  .00044861  00000+0  37444-2 0  9991
2 49178  69.9966 170.5543 0003350 282.0601 204.5472 14.98319753 19230
STARLINK-3043           
1 49179U 21082BB  22008.08335648 -.00039009  00000+0 -32583-3 0  9998
2 49179  69.9993 160.8358 0003351 280.3868  54.0929 15.69800008 18303
STARLINK-3050           
1 49180U 21082BC  22008.25001157  .00078567  00000+0  65492-3 0  9999
2 49180  69.9999 160.3566 0003404 276.4688 285.9160 15.69706546 19509
STARLINK-3059           
1 49181U 21082BD  22008.25001157  .00045768  00000+0  38207-2 0  9990
2 49181  70.0006 170.5426 0003436 269.4275 319.9648 14.98307584 19250
ONEWEB-0292             
1 49186U 21083A   22008.25001157  .00023551  00000+0  26040-2 0  9994
2 49186  87.3734 287.4933 0017835 250.0365 259.7018 14.87168612 18569
ONEWEB-0303             
1 49187U 21083B   22007.91667824 -.00044685  00000+0 -11390+0 0  9998
2 49187  87.9073 297.7301 0001899  88.5990   2.8174 13.18705391  3306
ONEWEB-0306             
1 49188U 21083C   22007.91667824 -.00045169  00000+0 -11513+0 0  9994
2 49188  87.9057 297.7131 0002349  86.5522  34.1655 13.18710098  3302
ONEWEB-0307             
1 49189U 21083D   22008.25001157  .00020993  00000+0  23225-2 0  9996
2 49189  87.3633 287.5678 0015685 239.4579 136.4858 14.87179957 18552
ONEWEB-0320             
1 49190U 21083E   22007.91667824 -.00044825  00000+0 -11425+0 0  9997
2 49190  87.9098 297.7309 0001420  73.5669  25.1570 13.18710810  3313
ONEWEB-0321             
1 49191U 21083F   22008.25001157  .00020183  00000+0  20993-2 0  9999
2 49191  87.2062 287.3014 0018462 249.1726   5.0755 14.89647325 18581
ONEWEB-0322             
1 49192U 21083G   22008.25001157  .00023218  00000+0  25699-2 0  9990
2 49192  87.3711 287.5062 0016638 252.4730 227.7032 14.87141891 18568
ONEWEB-0324             
1 49193U 21083H   22007.91667824 -.00045333  00000+0 -11555+0 0  9999
2 49193  87.9084 297.7397 0002076  93.7623  56.2198 13.18710592  3318
ONEWEB-0325             
1 49194U 21083J   22007.91667824 -.00043590  00000+0 -11111+0 0  9991
2 49194  87.9083 297.6289 0000527  77.2650  58.1224 13.18698050  3307
ONEWEB-0326             
1 49195U 21083K   22007.91667824 -.00044535  00000+0 -11351+0 0  9998
2 49195  87.9087 297.7223 0001685  91.7769 352.2084 13.18709231  3305
ONEWEB-0327             
1 49196U 21083L   22007.91667824 -.00045301  00000+0 -11641+0 0  9993
2 49196  87.9092 297.6741 0002304  98.5991  63.1819 13.18159605  3305
ONEWEB-0328             
1 49197U 21083M   22008.25001157  .00022672  00000+0  25112-2 0  9998
2 49197  87.3686 287.5122 0016185 250.1773 201.4926 14.87120595 18558
ONEWEB-0331             
1 49198U 21083N   22007.91667824 -.00044945  00000+0 -11456+0 0  9992
2 49198  87.9102 297.7192 0001972  90.0064  15.9924 13.18709051  3294
ONEWEB-0333             
1 49199U 21083P   22008.00001157 -.00022939  00000+0 -25602-2 0  9995
2 49199  87.3575 287.6435 0015941 250.9757 272.1934 14.87176035 18525
ONEWEB-0334             
1 49200U 21083Q   22008.08335648  .00038375  00000+0  40164-2 0  9990
2 49200  87.2022 287.2964 0018874 243.2128 258.9869 14.89313780 18567
ONEWEB-0335             
1 49201U 21083R   22008.00001157 -.00022677  00000+0 -25280-2 0  9990
2 49201  87.3606 287.6609 0018920 238.9744  73.6586 14.87183866 18515
ONEWEB-0336             
1 49202U 21083S   22008.00001157 -.00020137  00000+0 -22463-2 0  9990
2 49202  87.3607 287.6246 0016869 235.8898 150.2342 14.87176840 18516
ONEWEB-0337             
1 49203U 21083T   22008.00001157 -.00020442  00000+0 -22776-2 0  9997
2 49203  87.3605 287.6386 0018630 242.6553 130.7288 14.87201387 18519
ONEWEB-0338             
1 49204U 21083U   22008.25001157  .00022408  00000+0  23301-2 0  9992
2 49204  87.2080 287.3218 0018463 249.7622 315.1572 14.89650768 18581
ONEWEB-0339             
1 49205U 21083V   22008.08335648  .00037725  00000+0  41695-2 0  9993
2 49205  87.3649 287.5810 0016650 242.2842 276.1352 14.87134626 18537
ONEWEB-0340             
1 49206U 21083W   22007.91667824 -.00045289  00000+0 -11544+0 0  9992
2 49206  87.9090 297.7301 0001617  86.9693  77.8088 13.18709475  3300
ONEWEB-0341             
1 49207U 21083X   22007.91667824 -.00045243  00000+0 -11532+0 0  9990
2 49207  87.9084 297.6208 0000832 122.9965   5.1706 13.18710838  3306
ONEWEB-0342             
1 49208U 21083Y   22008.00001157 -.00020078  00000+0 -21044-2 0  9994
2 49208  87.2043 287.3574 0019513 237.5566 230.9162 14.89666816 18555
ONEWEB-0343             
1 49209U 21083Z   22008.00001157 -.00020640  00000+0 -52500-1 0  9990
2 49209  87.9103 297.6562 0000276 123.3119  54.6896 13.18693536 17669
ONEWEB-0344             
1 49210U 21083AA  22008.08335648 -.00102675  00000+0 -11557-1 0  9991
2 49210  87.3640 287.5750 0017797 235.9155 168.5728 14.87230851 18523
